satname,norad_id,inclination_deg,eccentricity,mean_motion_rev_per_day,perigee_km,apogee_km,l1,l2
STARLINK-1302,45375,53.0547,0.0001437,15.06378272,546.2829697719881,548.2733340866525,1 45375U 20019R   25305.59459635 -.00002231  00000+0 -13102-3 0  9996,2 45375  53.0547  21.6605 0001437  76.1074 284.0075 15.06378272310427
STARLINK-1304,45376,53.0547,0.0001222,15.06379103,546.429319553622,548.1218903942772,1 45376U 20019S   25305.48033594 -.00005144  00000+0 -32685-3 0  9990,2 45376  53.0547  22.1728 0001222  93.6331 266.4798 15.06379103310400
STARLINK-1305,45377,53.0564,0.0001506,15.31316637,470.8514057708344,472.9146318004932,1 45377U 20019T   25305.60182878  .00022194  00000+0  73345-3 0  9995,2 45377  53.0564  19.1316 0001506  80.4595 279.6575 15.31316637310466
STARLINK-1319,45379,53.0534,0.0001495,15.22441807,497.4498957835958,499.5060036535624,1 45379U 20019V   25305.66668981  .02122397  00000+0  81128-1 0  9991,2 45379  53.0534  20.8840 0001495  83.3896 343.8081 15.22441807  5701
STARLINK-1266,45383,53.0549,0.0001362,15.06390454,546.2975787494715,548.1840516663351,1 45383U 20019Z   25305.56693648 -.00017932  00000+0 -11883-2 0  9993,2 45383  53.0549   1.7852 0001362  91.6269 268.4876 15.06390454310696
STARLINK-1267,45384,53.055,0.0001323,15.06384673,546.3423035550159,548.1747632131492,1 45384U 20019AA  25305.48594839 -.00000220  00000+0  41201-5 0  9998,2 45384  53.0550   2.8054 0001323  89.6411 270.4730 15.06384673310674
STARLINK-1272,45386,53.0549,0.0002004,15.33644921,463.5770605384605,466.3197691727346,1 45386U 20019AC  25305.60262637  .00055757  00000+0  16888-2 0  9996,2 45386  53.0549 359.2761 0002004  34.3604 325.7526 15.33644921310735
STARLINK-1274,45387,53.0366,0.0003031,15.29047537,476.57998267637504,480.73657197348894,1 45387U 20019AD  25305.50432157  .00053664  00000+0  18760-2 0  9998,2 45387  53.0366 347.1583 0003031 261.0012  99.0644 15.29047537310898
STARLINK-1280,45388,53.056,0.0001958,15.3923417,447.0360550504638,449.7093162433621,1 45388U 20019AE  25305.47830392  .00068605  00000+0  17313-2 0  9992,2 45388  53.0560  19.3171 0001958  30.4110 329.7007 15.39234170310437
STARLINK-1283,45389,53.0536,0.0003333,15.30170085,473.0201396564544,477.58864368814375,1 45389U 20019AF  25305.51000410  .00044603  00000+0  15102-2 0  9994,2 45389  53.0536 358.3274 0003333  17.6758 342.4357 15.30170085310744
STARLINK-1284,45390,53.0553,0.000132,15.06386792,546.3378874986265,548.1661902048836,1 45390U 20019AG  25305.57065087  .00001559  00000+0  12357-3 0  9996,2 45390  53.0553   1.7703 0001320  85.6444 274.4695 15.06386792310692
STARLINK-1292,45394,53.0431,0.000763,15.95804604,280.9885898462662,291.15817488976063,1 45394U 20019AL  25305.66668981  .00392605  73013-4  94914-3 0  9995,2 45394  53.0431 310.7130 0007630  28.8617  67.6755 15.95804604  6077
STARLINK-1297,45395,53.0558,0.0001315,15.06386293,546.342879377934,548.164257097379,1 45395U 20019AM  25305.47481859  .00000213  00000+0  33217-4 0  9994,2 45395  53.0558   2.1971 0001315  86.9988 273.1151 15.06386293309861
STARLINK-1307,45397,53.0553,0.0001291,15.06378177,546.384371963949,548.1725142313571,1 45397U 20019AP  25305.46743628  .00011812  00000+0  81103-3 0  9993,2 45397  53.0553   2.2302 0001291  68.5325 291.5802 15.06378177310503
STARLINK-1312,45398,53.0401,0.00054,16.01838943,265.7365855670505,272.91584584001066,1 45398U 20019AQ  25305.58815492  .00597059  17359-3  10264-2 0  9996,2 45398  53.0401 310.2489 0005400  34.1456 325.9921 16.01838943311170
STARLINK-1255,45399,53.0505,0.000185,15.30164344,474.05364404684406,476.58942370437853,1 45399U 20019AR  25305.51858140  .00051118  00000+0  17280-2 0  9994,2 45399  53.0505 349.3759 0001850  43.0873 317.0271 15.30164344310678
STARLINK-1260,45404,53.0553,0.0001575,15.06390439,546.1501141680928,548.3316081943649,1 45404U 20019AW  25305.40201437  .00001452  00000+0  11637-3 0  9997,2 45404  53.0553 352.5199 0001575  90.3754 269.7415 15.06390439310525
STARLINK-1263,45405,53.0553,0.0001059,15.06391708,546.5035747369684,547.9703689442049,1 45405U 20019AX  25305.51995920  .00002550  00000+0  19008-3 0  9997,2 45405  53.0553 351.9989 0001059 115.4262 244.6837 15.06391708310548
STARLINK-1265,45406,53.0551,0.0001222,15.06392092,546.3895143698055,548.0820754808856,1 45406U 20019AY  25305.52734084 -.00000183  00000+0  65933-5 0  9992,2 45406  53.0551 351.9599 0001222  88.4494 271.6635 15.06392092310545
STARLINK-1278,45408,53.0554,0.0001912,15.3311871,465.2054588276842,467.82285342978685,1 45408U 20019BA  25305.59222364  .00051187  00000+0  15782-2 0  9997,2 45408  53.0554  19.2708 0001912   7.7529 352.3501 15.33118710310176
STARLINK-1296,45412,53.0554,0.0001558,15.06389765,546.1639527241641,548.3219011093906,1 45412U 20019BE  25305.39832764 -.00001882  00000+0 -10748-3 0  9998,2 45412  53.0554 352.5363 0001558  98.9082 261.2084 15.06389765310526
STARLINK-1298,45413,53.0487,0.0008411,15.52696078,403.1495845373647,414.5666677385534,1 45413U 20019BF  25305.34668759  .00101628  00000+0  16040-2 0  9992,2 45413  53.0487 328.6230 0008411 317.2782  42.7572 15.52696078310958
STARLINK-1309,45414,53.0554,0.0001353,15.06384891,546.3208593089639,548.194871159496,1 45414U 20019BG  25305.41307027 -.00003154  00000+0 -19299-3 0  9996,2 45414  53.0554 352.4755 0001353  89.9217 270.1927 15.06384891310514
STARLINK-1316,45415,53.0566,0.00015,15.06382341,546.2268703565205,548.3044911607485,1 45415U 20019BH  25305.43887110  .00003564  00000+0  25817-3 0  9991,2 45415  53.0566 352.3608 0001500 108.8618 251.2534 15.06382341310550
STARLINK-1318,45416,53.0513,0.0005219,15.60391737,382.9941861610696,390.05514000499625,1 45416U 20019BJ  25305.32864753  .00051786  00000+0  62164-3 0  9993,2 45416  53.0513 320.1851 0005219  38.0879 322.0502 15.60391737310988
STARLINK-1286,45417,53.0541,0.0001022,15.3526457,459.43589058017005,460.8336333283132,1 45417U 20019BK  25305.66668981  .00172670  00000+0  48691-2 0  9990,2 45417  53.0541  19.4397 0001022  80.1791 125.3281 15.35264570  5741
STARLINK-1308,45419,53.0541,0.0001433,15.06409844,546.1889895354188,548.1737857853213,1 45419U 20019BM  25305.60565070  .00011908  00000+0  81673-3 0  9995,2 45419  53.0541  21.6089 0001433  95.4463 264.6690 15.06409844310166
STARLINK-1329,45531,53.0552,0.0001202,15.0637863,546.4446199153481,548.1094894540947,1 45531U 20025A   25305.30893454  .00003501  00000+0  25393-3 0  9991,2 45531  53.0552 322.9449 0001202  86.1681 273.9446 15.06378630305741
STARLINK-1338,45532,53.0548,0.000143,15.06394404,546.238381629023,548.2190362217762,1 45532U 20025B   25305.38635507  .00003489  00000+0  25305-3 0  9991,2 45532  53.0548 322.5921 0001430  86.1391 273.9762 15.06394404305758
STARLINK-1350,45535,53.0735,0.0001676,15.32273601,467.88306862025,470.17823921784293,1 45535U 20025E   25305.20256833  .00014753  00000+0  47763-3 0  9994,2 45535  53.0735 274.8710 0001676  64.2771 295.8403 15.32273601306430
STARLINK-1362,45538,53.0562,0.0001638,15.06385651,546.1211566083484,548.3899152031117,1 45538U 20025H   25305.35219628 -.00003121  00000+0 -19079-3 0  9992,2 45538  53.0562 322.4688 0001638  98.1754 261.9421 15.06385651305758
STARLINK-1368,45540,53.0565,0.0001733,15.06385625,546.0554450529708,548.4557861335352,1 45540U 20025K   25305.35685586 -.00003862  00000+0 -24056-3 0  9998,2 45540  53.0565 322.7309 0001733 109.1306 250.9871 15.06385625305746
STARLINK-1371,45542,53.0548,0.0001288,15.06394703,546.3358055426643,548.1197795132193,1 45542U 20025M   25305.32736800 -.00000817  00000+0 -35935-4 0  9999,2 45542  53.0548 322.8587 0001288  92.7653 267.3483 15.06394703305743
STARLINK-1372,45543,53.056,0.0001549,15.06383158,546.1904322361379,548.3359212108871,1 45543U 20025N   25305.29788623 -.00002314  00000+0 -13654-3 0  9993,2 45543  53.0560 322.9937 0001549  94.3114 265.8052 15.06383158304834
STARLINK-1373,45544,53.0553,0.0001581,15.06389097,546.1500713743771,548.339877154639,1 45544U 20025P   25305.31632522  .00002072  00000+0  15800-3 0  9997,2 45544  53.0553 322.9049 0001581  86.5235 273.5935 15.06389097305749
STARLINK-1294,45551,53.049,0.0008254,15.5988118,382.41588453875374,393.58542457890053,1 45551U 20025W   25305.66668981  .00111716  00000+0  13489-2 0  9997,2 45551  53.0490 254.0229 0008254  57.7747  44.3677 15.59881180  5948
STARLINK-1325,45554,53.0544,0.0001562,15.61368727,382.64628339818864,384.7586820525921,1 45554U 20025Z   25305.66668981  .00166116  00000+0  18815-2 0  9992,2 45554  53.0544 246.9544 0001562 115.9836 169.6143 15.61368727  5985
STARLINK-1327,45555,53.0546,0.0001529,15.06389541,546.1847227565768,548.3025041481715,1 45555U 20025AA  25305.28867535  .00000145  00000+0  28608-4 0  9999,2 45555  53.0546 303.0318 0001529  85.2310 274.8854 15.06389541306013
STARLINK-1356,45564,53.0559,0.0001496,15.06386142,546.2179925397231,548.2900695362105,1 45564U 20025AK  25305.29236365  .00000379  00000+0  44350-4 0  9992,2 45564  53.0559 303.0157 0001496  93.9931 266.1229 15.06386142306010
STARLINK-1357,45565,53.0611,0.0007451,15.32467268,463.35236879882086,473.55515835470305,1 45565U 20025AL  25305.66668981  .00070313  00000+0  22012-2 0  9991,2 45565  53.0611 286.1745 0007451   1.4577 191.8291 15.32467268  5917
STARLINK-1361,45567,53.0547,0.0001541,15.06380847,546.203054487979,548.3374650054329,1 45567U 20025AN  25305.31079587 -.00001547  00000+0 -85017-4 0  9994,2 45567  53.0547 302.9329 0001541  88.8769 271.2396 15.06380847306021
STARLINK-1363,45568,53.0544,0.000154,15.41014359,442.0638503367427,444.1647957442383,1 45568U 20025AP  25305.25998413  .00097381  00000+0  23049-2 0  9990,2 45568  53.0544 300.6045 0001540  82.6106 277.5073 15.41014359306049
STARLINK-1366,45569,53.0526,0.0001822,15.39669029,445.8436981460027,448.3308098641619,1 45569U 20025AQ  25305.28625601  .00083295  00000+0  20661-2 0  9996,2 45569  53.0526 299.9369 0001822  74.4546 285.6658 15.39669029306056
